GLOBALSTAR M035         
1 25851U 99037A   26025.74146830 -.00000098  00000+0 -12869-2 0  9993
2 25851  51.9953 278.6498 0013827 347.1775  45.7183 11.04541424120854
GLOBALSTAR M032         
1 25852U 99037B   26025.83610448 -.00000174  00000+0 -34397-2 0  9990
2 25852  51.9956  88.2720 0012999 180.9442 179.1335 11.19069666159711
GLOBALSTAR M051         
1 25853U 99037C   26025.86197699 -.00000056  00000+0  38636-3 0  9991
2 25853  51.9759 223.7168 0001169  83.9269 276.1675 11.42199912157831
GLOBALSTAR M030         
1 25854U 99037D   26025.21752691 -.00000119  00000+0 -92646-3 0  9992
2 25854  51.9905  17.2535 0003528  79.8230 280.2985 11.55109677175701
GLOBALSTAR M048         
1 25872U 99041A   26025.82200017 -.00000049  00000+0  58116-3 0  9999
2 25872  51.9344 167.4509 0013077 204.9739 303.8014 11.33861950150233
GLOBALSTAR M026         
1 25873U 99041B   26025.29924920 -.00000115  00000+0 -18595-2 0  9998
2 25873  52.0031  35.2452 0001764 277.6766  95.3515 11.06842377173084
GLOBALSTAR M043         
1 25874U 99041C   26025.69292566 -.00000057  00000+0  32657-3 0  9997
2 25874  51.9405 284.2711 0013588 334.2447  48.2231 11.25696231147939
GLOBALSTAR M028         
1 25875U 99041D   26025.02145960 -.00000075  00000+0  16453-3 0  9996
2 25875  51.9607 251.5885 0062870 192.5374 167.3925 12.50594771217931
